[{"OBJECT_NAME":"BASIL","OBJECT_ID":"2025-185E","EPOCH":"2026-03-09T17:13:07.241088","MEAN_MOTION":14.77353126,"ECCENTRICITY":0.00114241,"INCLINATION":97.9635,"RA_OF_ASC_NODE":153.1696,"ARG_OF_PERICENTER":56.4063,"MEAN_ANOMALY":303.8236,"EPHEMERIS_TYPE":0,"CLASSIFICATION_TYPE":"U","NORAD_CAT_ID":65301,"ELEMENT_SET_NO":999,"REV_AT_EPOCH":2914,"BSTAR":0.00086699365,"MEAN_MOTION_DOT":6.12e-5,"MEAN_MOTION_DDOT":0},{"OBJECT_NAME":"METEOR 2-7 DEB","OBJECT_ID":"1981-043S","EPOCH":"2026-02-16T11:13:13.130976","MEAN_MOTION":14.77460944,"ECCENTRICITY":0.00179867,"INCLINATION":81.2265,"RA_OF_ASC_NODE":61.5904,"ARG_OF_PERICENTER":77.1698,"MEAN_ANOMALY":283.1518,"EPHEMERIS_TYPE":0,"CLASSIFICATION_TYPE":"U","NORAD_CAT_ID":36879,"ELEMENT_SET_NO":999,"REV_AT_EPOCH":63830,"BSTAR":0.005089542,"MEAN_MOTION_DOT":0.00036529,"MEAN_MOTION_DDOT":0}]
